{
  "norad_id": 67128,
  "name": "STARLINK-35685",
  "history": [
    {
      "epoch": "2026-03-28T14:45:08.594784Z",
      "apogee_km": 483.6246069408935,
      "perigee_km": 482.3992057462219,
      "latitude_deg": 1.2897625288541787e-05,
      "longitude_deg": 14.53200731770063,
      "height_km": 482.9244240301315,
      "semi_major_axis_km": 6861.148906343557,
      "eccentricity": 8.93e-05,
      "inclination_deg": 42.9958,
      "raan_deg": 61.8504,
      "arg_perigee_deg": 257.1021,
      "mean_anomaly_deg": 102.9731,
      "mean_motion_rev_day": 15.2759242
    },
    {
      "epoch": "2026-03-29T04:52:32.878848Z",
      "apogee_km": 483.8940004219994,
      "perigee_km": 482.09638378766795,
      "latitude_deg": 8.375038899231694e-06,
      "longitude_deg": 158.776790916845,
      "height_km": 482.8411043711705,
      "semi_major_axis_km": 6861.132192104833,
      "eccentricity": 0.000131,
      "inclination_deg": 42.9952,
      "raan_deg": 58.5264,
      "arg_perigee_deg": 265.5437,
      "mean_anomaly_deg": 94.5265,
      "mean_motion_rev_day": 15.27598002
    },
    {
      "epoch": "2026-03-30T04:24:53.534016Z",
      "apogee_km": 483.756929563463,
      "perigee_km": 482.22552574304973,
      "latitude_deg": -2.7669127203067245e-05,
      "longitude_deg": 159.18387460274806,
      "height_km": 482.68691981008374,
      "semi_major_axis_km": 6861.128227653256,
      "eccentricity": 0.0001116,
      "inclination_deg": 42.9993,
      "raan_deg": 52.9863,
      "arg_perigee_deg": 276.0497,
      "mean_anomaly_deg": 84.0227,
      "mean_motion_rev_day": 15.27599326
    },
    {
      "epoch": "2026-03-30T04:24:53.534880Z",
      "apogee_km": 483.75679234089785,
      "perigee_km": 482.225662965614,
      "latitude_deg": -2.9244310998680662e-05,
      "longitude_deg": 159.18386931302317,
      "height_km": 482.6869342713389,
      "semi_major_axis_km": 6861.128227653256,
      "eccentricity": 0.00011158,
      "inclination_deg": 42.9993,
      "raan_deg": 52.9863,
      "arg_perigee_deg": 276.0497,
      "mean_anomaly_deg": 84.0227,
      "mean_motion_rev_day": 15.27599326
    },
    {
      "epoch": "2026-03-30T13:49:50.107296Z",
      "apogee_km": 483.45529592939965,
      "perigee_km": 482.57857767935457,
      "latitude_deg": 1.397272178030171e-05,
      "longitude_deg": 15.344907799799074,
      "height_km": 482.6596884136185,
      "semi_major_axis_km": 6861.153936804377,
      "eccentricity": 6.389e-05,
      "inclination_deg": 42.9987,
      "raan_deg": 50.7697,
      "arg_perigee_deg": 287.6791,
      "mean_anomaly_deg": 72.3991,
      "mean_motion_rev_day": 15.2759074
    },
    {
      "epoch": "2026-03-31T13:22:11.262720Z",
      "apogee_km": 483.8948415651139,
      "perigee_km": 482.174059765287,
      "latitude_deg": 2.810800832338962e-05,
      "longitude_deg": 15.750055549148975,
      "height_km": 482.89504367596516,
      "semi_major_axis_km": 6861.171450665201,
      "eccentricity": 0.0001254,
      "inclination_deg": 42.9991,
      "raan_deg": 45.2297,
      "arg_perigee_deg": 264.3883,
      "mean_anomaly_deg": 95.6826,
      "mean_motion_rev_day": 15.27584891
    },
    {
      "epoch": "2026-04-01T12:54:32.003424Z",
      "apogee_km": 483.8506701438355,
      "perigee_km": 482.153224368285,
      "latitude_deg": 2.4902268133686157e-06,
      "longitude_deg": 16.158993647285648,
      "height_km": 482.74152389437614,
      "semi_major_axis_km": 6861.1389472560595,
      "eccentricity": 0.0001237,
      "inclination_deg": 42.9991,
      "raan_deg": 39.6918,
      "arg_perigee_deg": 272.4912,
      "mean_anomaly_deg": 87.5798,
      "mean_motion_rev_day": 15.27595746
    },
    {
      "epoch": "2026-04-02T12:26:52.360512Z",
      "apogee_km": 483.9457915860039,
      "perigee_km": 482.26204306489217,
      "latitude_deg": 3.185744541562904e-05,
      "longitude_deg": 16.568592808352673,
      "height_km": 482.04173917325255,
      "semi_major_axis_km": 6861.240917325448,
      "eccentricity": 0.0001227,
      "inclination_deg": 42.9995,
      "raan_deg": 34.1529,
      "arg_perigee_deg": 354.3396,
      "mean_anomaly_deg": 5.7442,
      "mean_motion_rev_day": 15.27561692
    },
    {
      "epoch": "2026-04-03T19:50:00.356064Z",
      "apogee_km": 484.19746500735164,
      "perigee_km": 481.85369187055585,
      "latitude_deg": -1.6666654483456816e-05,
      "longitude_deg": -102.88933238153193,
      "height_km": 483.34514708247025,
      "semi_major_axis_km": 6861.1625784389535,
      "eccentricity": 0.0001708,
      "inclination_deg": 42.9995,
      "raan_deg": 26.7673,
      "arg_perigee_deg": 242.4014,
      "mean_anomaly_deg": 117.6664,
      "mean_motion_rev_day": 15.27587854
    },
    {
      "epoch": "2026-04-04T03:40:47.925408Z",
      "apogee_km": 484.7437605126361,
      "perigee_km": 481.42265548315663,
      "latitude_deg": 2.204501147123849e-05,
      "longitude_deg": 137.24435690577172,
      "height_km": 483.6147533994816,
      "semi_major_axis_km": 6861.220207997896,
      "eccentricity": 0.00024202,
      "inclination_deg": 43.002,
      "raan_deg": 24.9214,
      "arg_perigee_deg": 242.9897,
      "mean_anomaly_deg": 117.0708,
      "mean_motion_rev_day": 15.27568608
    }
  ]
}